{"type": "FeatureCollection", "features": [ {"type": "Feature", "properties": {"norad_id": 43213, "name": "FENGYUN 1C DEB", "group": "fengyun-1c-debris", "lat": 80.38590693380002, "lon": -23.33441675694368, "alt_km": 843.3120898641528, "timestamp": "2025-12-03T08:58:46.292507+00:00", "meta": {"OBJECT_NAME": "FENGYUN 1C DEB", "OBJECT_ID": "1999-025EYM", "EPOCH": "2025-12-03T03:30:49.972608", "MEAN_MOTION": 14.23745393, "ECCENTRICITY": 0.0054056, "INCLINATION": 98.7343, "RA_OF_ASC_NODE": 41.6102, "ARG_OF_PERICENTER": 254.7571, "MEAN_ANOMALY": 104.7627, "EPHEMERIS_TYPE": 0, "CLASSIFICATION_TYPE": "U", "NORAD_CAT_ID": 43213, "ELEMENT_SET_NO": 999, "REV_AT_EPOCH": 40236, "BSTAR": 0.0020432, "MEAN_MOTION_DOT": 4.697e-05, "MEAN_MOTION_DDOT": 0}, "tle": {"line1": "1 43213U 99025EYM 25337.14641172  .00004697  00000+0  20432-2 0  9992", "line2": "2 43213  98.7343  41.6102 0054056 254.7571 104.7627 14.23745393402367"}}, "geometry": {"type": "Point", "coordinates": [-23.33441675694368, 80.38590693380002]}}, {"type": "Feature", "properties": {"norad_id": 43214, "name": "FENGYUN 1C DEB", "group": "fengyun-1c-debris", "lat": 2.826361017652798, "lon": 41.70801222373836, "alt_km": 827.1356443973191, "timestamp": "2025-12-03T08:58:46.292517+00:00", "meta": {"OBJECT_NAME": "FENGYUN 1C DEB", "OBJECT_ID": "1999-025EYN", "EPOCH": "2025-12-03T03:54:25.570080", "MEAN_MOTION": 14.2401605, "ECCENTRICITY": 0.0054962, "INCLINATION": 98.7372, "RA_OF_ASC_NODE": 41.933, "ARG_OF_PERICENTER": 254.3993, "MEAN_ANOMALY": 105.1115, "EPHEMERIS_TYPE": 0, "CLASSIFICATION_TYPE": "U", "NORAD_CAT_ID": 43214, "ELEMENT_SET_NO": 999, "REV_AT_EPOCH": 40267, "BSTAR": 0.002123, "MEAN_MOTION_DOT": 4.91e-05, "MEAN_MOTION_DDOT": 0}, "tle": {"line1": "1 43214U 99025EYN 25337.16279595  .00004910  00000+0  21230-2 0  9996", "line2": "2 43214  98.7372  41.9330 0054962 254.3993 105.1115 14.24016050402679"}}, "geometry": {"type": "Point", "coordinates": [41.70801222373836, 2.826361017652798]}}, {"type": "Feature", "properties": {"norad_id": 43358, "name": "FENGYUN 1C DEB", "group": "fengyun-1c-debris", "lat": 39.9994546070438, "lon": 91.33322488780202, "alt_km": 1378.569876408612, "timestamp": "2025-12-03T08:58:46.292527+00:00", "meta": {"OBJECT_NAME": "FENGYUN 1C DEB", "OBJECT_ID": "1999-025EYP", "EPOCH": "2025-12-02T05:53:25.037088", "MEAN_MOTION": 13.40306135, "ECCENTRICITY": 0.0367359, "INCLINATION": 98.6882, "RA_OF_ASC_NODE": 97.7334, "ARG_OF_PERICENTER": 229.0325, "MEAN_ANOMALY": 127.8482, "EPHEMERIS_TYPE": 0, "CLASSIFICATION_TYPE": "U", "NORAD_CAT_ID": 43358, "ELEMENT_SET_NO": 999, "REV_AT_EPOCH": 53590, "BSTAR": 0.002855, "MEAN_MOTION_DOT": 2.281e-05, "MEAN_MOTION_DDOT": 0}, "tle": {"line1": "1 43358U 99025EYP 25336.24542867  .00002281  00000+0  28550-2 0  9999", "line2": "2 43358  98.6882  97.7334 0367359 229.0325 127.8482 13.40306135535905"}}, "geometry": {"type": "Point", "coordinates": [91.33322488780202, 39.9994546070438]}}, {"type": "Feature", "properties": {"norad_id": 43359, "name": "FENGYUN 1C DEB", "group": "fengyun-1c-debris", "lat": -63.514979071441644, "lon": 75.76143019575552, "alt_km": 838.0228344526713, "timestamp": "2025-12-03T08:58:46.292537+00:00", "meta": {"OBJECT_NAME": "FENGYUN 1C DEB", "OBJECT_ID": "1999-025EYQ", "EPOCH": "2025-12-03T04:13:15.477312", "MEAN_MOTION": 14.23022125, "ECCENTRICITY": 0.0074115, "INCLINATION": 99.054, "RA_OF_ASC_NODE": 56.8934, "ARG_OF_PERICENTER": 43.17, "MEAN_ANOMALY": 317.5255, "EPHEMERIS_TYPE": 0, "CLASSIFICATION_TYPE": "U", "NORAD_CAT_ID": 43359, "ELEMENT_SET_NO": 999, "REV_AT_EPOCH": 47613, "BSTAR": 0.0025639, "MEAN_MOTION_DOT": 5.9e-05, "MEAN_MOTION_DDOT": 0}, "tle": {"line1": "1 43359U 99025EYQ 25337.17587358  .00005900  00000+0  25639-2 0  9993", "line2": "2 43359  99.0540  56.8934 0074115  43.1700 317.5255 14.23022125476132"}}, "geometry": {"type": "Point", "coordinates": [75.76143019575552, -63.514979071441644]}}, {"type": "Feature", "properties": {"norad_id": 45526, "name": "FENGYUN 1C DEB", "group": "fengyun-1c-debris", "lat": -44.78981580298351, "lon": 58.34165932910167, "alt_km": 796.1324919631879, "timestamp": "2025-12-03T08:58:46.292547+00:00", "meta": {"OBJECT_NAME": "FENGYUN 1C DEB", "OBJECT_ID": "1999-025EYR", "EPOCH": "2025-12-03T04:08:22.721280", "MEAN_MOTION": 14.25804851, "ECCENTRICITY": 0.0053853, "INCLINATION": 98.7653, "RA_OF_ASC_NODE": 49.33, "ARG_OF_PERICENTER": 249.8754, "MEAN_ANOMALY": 109.6626, "EPHEMERIS_TYPE": 0, "CLASSIFICATION_TYPE": "U", "NORAD_CAT_ID": 45526, "ELEMENT_SET_NO": 999, "REV_AT_EPOCH": 43240, "BSTAR": 0.0024328, "MEAN_MOTION_DOT": 5.831e-05, "MEAN_MOTION_DDOT": 0}, "tle": {"line1": "1 45526U 99025EYR 25337.17248520  .00005831  00000+0  24328-2 0  9993", "line2": "2 45526  98.7653  49.3300 0053853 249.8754 109.6626 14.25804851432405"}}, "geometry": {"type": "Point", "coordinates": [58.34165932910167, -44.78981580298351]}}, {"type": "Feature", "properties": {"norad_id": 45527, "name": "FENGYUN 1C DEB", "group": "fengyun-1c-debris", "lat": 9.032048164553046, "lon": 42.64442260551199, "alt_km": 829.6489342015811, "timestamp": "2025-12-03T08:58:46.292558+00:00", "meta": {"OBJECT_NAME": "FENGYUN 1C DEB", "OBJECT_ID": "1999-025EYS", "EPOCH": "2025-12-03T03:52:44.018112", "MEAN_MOTION": 14.24385911, "ECCENTRICITY": 0.0054428, "INCLINATION": 98.7404, "RA_OF_ASC_NODE": 43.8343, "ARG_OF_PERICENTER": 253.1442, "MEAN_ANOMALY": 106.3763, "EPHEMERIS_TYPE": 0, "CLASSIFICATION_TYPE": "U", "NORAD_CAT_ID": 45527, "ELEMENT_SET_NO": 999, "REV_AT_EPOCH": 39443, "BSTAR": 0.0021615, "MEAN_MOTION_DOT": 5.035e-05, "MEAN_MOTION_DDOT": 0}, "tle": {"line1": "1 45527U 99025EYS 25337.16162058  .00005035  00000+0  21615-2 0  9996", "line2": "2 45527  98.7404  43.8343 0054428 253.1442 106.3763 14.24385911394433"}}, "geometry": {"type": "Point", "coordinates": [42.64442260551199, 9.032048164553046]}}, {"type": "Feature", "properties": {"norad_id": 46440, "name": "FENGYUN 1C DEB", "group": "fengyun-1c-debris", "lat": 35.796064776593504, "lon": -169.1092488688998, "alt_km": 701.5937482829477, "timestamp": "2025-12-03T08:58:46.292568+00:00", "meta": {"OBJECT_NAME": "FENGYUN 1C DEB", "OBJECT_ID": "1999-025EYV", "EPOCH": "2025-11-30T21:42:54.078912", "MEAN_MOTION": 14.20290607, "ECCENTRICITY": 0.0175806, "INCLINATION": 98.5947, "RA_OF_ASC_NODE": 2.2289, "ARG_OF_PERICENTER": 169.3708, "MEAN_ANOMALY": 316.1091, "EPHEMERIS_TYPE": 0, "CLASSIFICATION_TYPE": "U", "NORAD_CAT_ID": 46440, "ELEMENT_SET_NO": 999, "REV_AT_EPOCH": 62201, "BSTAR": 0.00034066806, "MEAN_MOTION_DOT": 8.08e-06, "MEAN_MOTION_DDOT": 0}, "tle": {"line1": "1 46440U 99025EYV 25334.90479258  .00000808  00000+0  34067-3 0  9992", "line2": "2 46440  98.5947   2.2289 0175806 169.3708 316.1091 14.20290607622019"}}, "geometry": {"type": "Point", "coordinates": [-169.1092488688998, 35.796064776593504]}}, {"type": "Feature", "properties": {"norad_id": 46443, "name": "FENGYUN 1C DEB", "group": "fengyun-1c-debris", "lat": -59.404867282778376, "lon": 59.954699183169154, "alt_km": 855.2869072209942, "timestamp": "2025-12-03T08:58:46.292578+00:00", "meta": {"OBJECT_NAME": "FENGYUN 1C DEB", "OBJECT_ID": "1999-025EYY", "EPOCH": "2025-11-30T03:06:17.115264", "MEAN_MOTION": 14.10725153, "ECCENTRICITY": 0.00970161, "INCLINATION": 99.2151, "RA_OF_ASC_NODE": 40.6932, "ARG_OF_PERICENTER": 31.9391, "MEAN_ANOMALY": 358.4735, "EPHEMERIS_TYPE": 0, "CLASSIFICATION_TYPE": "U", "NORAD_CAT_ID": 46443, "ELEMENT_SET_NO": 999, "REV_AT_EPOCH": 59418, "BSTAR": 0.0019203135, "MEAN_MOTION_DOT": 3.542e-05, "MEAN_MOTION_DDOT": 0}, "tle": {"line1": "1 46443U 99025EYY 25334.12936476  .00003542  00000+0  19203-2 0  9991", "line2": "2 46443  99.2151  40.6932 0097016  31.9391 358.4735 14.10725153594184"}}, "geometry": {"type": "Point", "coordinates": [59.954699183169154, -59.404867282778376]}}, {"type": "Feature", "properties": {"norad_id": 46444, "name": "FENGYUN 1C DEB", "group": "fengyun-1c-debris", "lat": 28.49357979035501, "lon": 164.28022423842185, "alt_km": 746.547369451785, "timestamp": "2025-12-03T08:58:46.292588+00:00", "meta": {"OBJECT_NAME": "FENGYUN 1C DEB", "OBJECT_ID": "1999-025EYZ", "EPOCH": "2025-11-29T06:45:16.022016", "MEAN_MOTION": 14.27103748, "ECCENTRICITY": 0.00836434, "INCLINATION": 98.5135, "RA_OF_ASC_NODE": 335.6326, "ARG_OF_PERICENTER": 190.2717, "MEAN_ANOMALY": 186.5379, "EPHEMERIS_TYPE": 0, "CLASSIFICATION_TYPE": "U", "NORAD_CAT_ID": 46444, "ELEMENT_SET_NO": 999, "REV_AT_EPOCH": 62390, "BSTAR": 0.00050592492, "MEAN_MOTION_DOT": 1.237e-05, "MEAN_MOTION_DDOT": 0}, "tle": {"line1": "1 46444U 99025EYZ 25333.28143544  .00001237  00000+0  50592-3 0  9990", "line2": "2 46444  98.5135 335.6326 0083643 190.2717 186.5379 14.27103748623900"}}, "geometry": {"type": "Point", "coordinates": [164.28022423842185, 28.49357979035501]}}, {"type": "Feature", "properties": {"norad_id": 46449, "name": "FENGYUN 1C DEB", "group": "fengyun-1c-debris", "lat": -35.57521874649671, "lon": -174.26533617724368, "alt_km": 811.8477490863161, "timestamp": "2025-12-03T08:58:46.292599+00:00", "meta": {"OBJECT_NAME": "FENGYUN 1C DEB", "OBJECT_ID": "1999-025EZE", "EPOCH": "2025-11-27T19:57:02.428704", "MEAN_MOTION": 14.19021773, "ECCENTRICITY": 0.02029501, "INCLINATION": 98.6463, "RA_OF_ASC_NODE": 6.5721, "ARG_OF_PERICENTER": 314.0231, "MEAN_ANOMALY": 44.4375, "EPHEMERIS_TYPE": 0, "CLASSIFICATION_TYPE": "U", "NORAD_CAT_ID": 46449, "ELEMENT_SET_NO": 999, "REV_AT_EPOCH": 57425, "BSTAR": 0.00050383916, "MEAN_MOTION_DOT": 1.244e-05, "MEAN_MOTION_DDOT": 0}, "tle": {"line1": "1 46449U 99025EZE 25331.83127811  .00001244  00000+0  50384-3 0  9990", "line2": "2 46449  98.6463   6.5721 0202950 314.0231  44.4375 14.19021773574253"}}, "geometry": {"type": "Point", "coordinates": [-174.26533617724368, -35.57521874649671]}}]}